Geo Point,ICC,city name,NAMA1,NLN1,latitude,longitude,zipCode,province,zipcode_first_digit
"50.48941849999983, 5.855257499999794",BE,Spa,Spa,FRE,50.48941849999983,5.855257499999794,4900,Luik,4
"51.11115349999983, 4.339097499999809",BE,Niel,Niel,DUT,51.11115349999983,4.339097499999809,2845,Antwerpen,2
"50.406761999999844, 4.9484939999997835",BE,Sart-Bernard,Sart-Bernard,FRE,50.406761999999844,4.9484939999997835,5330,Namen,5
"51.31045799999984, 3.135993499999785",BE,Blankenberge,Blankenberge,DUT,51.31045799999984,3.135993499999785,8370,West-Vlaanderen,8
"50.72573149999985, 4.625346499999807",BE,Basse-Wavre,Basse-Wavre,FRE,50.72573149999985,4.625346499999807,0,,0
"50.505993499999846, 4.384240999999804",BE,Luttre,Luttre,FRE,50.505993499999846,4.384240999999804,6238,Henegouwen,6
"50.386318499999845, 5.879402499999799",BE,Coo,Coo,FRE,50.386318499999845,5.879402499999799,0,,0
"50.434780999999845, 4.291164999999808",BE,Pieton,Pieton,FRE,50.434780999999845,4.291164999999808,0,,0
"50.73353999999983, 4.240870499999801",BE,Halle,Halle,DUT,50.73353999999983,4.240870499999801,1500,Vlaams-Brabant,1
"50.73353999999983, 4.240870499999801",BE,Halle,Halle,DUT,50.73353999999983,4.240870499999801,2980,Antwerpen,2
"50.80292599999984, 4.394639999999782",BE,Boondaal,Boondaal,DUT,50.80292599999984,4.394639999999782,0,,0
"50.93019549999985, 5.327472499999799",BE,Hasselt,Hasselt,DUT,50.93019549999985,5.327472499999799,3500,Limburg,3
"50.744316999999846, 3.965250999999796",BE,Galmaarden,Galmaarden,DUT,50.744316999999846,3.965250999999796,1570,Vlaams-Brabant,1
"50.223854499999845, 5.301560499999795",BE,Aye,Aye,FRE,50.223854499999845,5.301560499999795,6900,Luxemburg,6
"50.58749049999983, 3.872607499999787",BE,Combron-Casteau,Combron-Casteau,FRE,50.58749049999983,3.872607499999787,0,,0
"51.07918599999985, 2.653727999999802",BE,Koksijde,Koksijde,DUT,51.07918599999985,2.653727999999802,8670,West-Vlaanderen,8
"51.03392899999983, 4.490446499999791",BE,Mechelen-Nekkerspoel,Mechelen-Nekkerspoel,DUT,51.03392899999983,4.490446499999791,0,,0
"50.91931249999985, 4.055519499999804",BE,Erembodegem,Erembodegem,DUT,50.91931249999985,4.055519499999804,9320,Oost-Vlaanderen,9
"51.25408649999983, 4.423364999999791",BE,Luchtbal,Luchtbal,DUT,51.25408649999983,4.423364999999791,0,,0
"50.76209699999984, 4.655191499999802",BE,Florival,Florival,FRE,50.76209699999984,4.655191499999802,0,,0
"50.68307149999984, 4.375275499999788",BE,Braine-l'Alleud,Braine-l'Alleud,FRE,50.68307149999984,4.375275499999788,0,,0
"51.28238349999984, 4.434478999999783",BE,Ekeren,Ekeren,DUT,51.28238349999984,4.434478999999783,2180,Antwerpen,2
"50.544155499999846, 4.011929999999808",BE,Neufville,Neufville,FRE,50.544155499999846,4.011929999999808,0,,0
"49.707065999999855, 5.333067999999797",BE,Florenville,Florenville,FRE,49.707065999999855,5.333067999999797,6820,Luxemburg,6
"50.557034499999844, 4.696695999999804",BE,Chapelle-Dieu,Chapelle-Dieu,FRE,50.557034499999844,4.696695999999804,0,,0
"51.08775799999983, 3.718746499999809",BE,Wondelgem,Wondelgem,DUT,51.08775799999983,3.718746499999809,9032,Oost-Vlaanderen,9
"51.03826599999985, 5.280301499999808",BE,Heusden,Heusden,DUT,51.03826599999985,5.280301499999808,3550,Limburg,3
"51.03826599999985, 5.280301499999808",BE,Heusden,Heusden,DUT,51.03826599999985,5.280301499999808,9070,Oost-Vlaanderen,9
"50.470608499999855, 3.955486499999807",BE,Nimy,Nimy,FRE,50.470608499999855,3.955486499999807,7020,Henegouwen,7
"50.61977399999983, 5.530840999999782",BE,Pont-de-Seraing,Pont-de-Seraing,FRE,50.61977399999983,5.530840999999782,0,,0
"50.573822499999835, 5.686927999999796",BE,Trooz,Trooz,FRE,50.573822499999835,5.686927999999796,0,,0
"50.887451499999855, 4.418461999999806",BE,Haren,Haren,DUT,50.887451499999855,4.418461999999806,3700,Limburg,3
"50.887451499999855, 4.418461999999806",BE,Haren,Haren,DUT,50.887451499999855,4.418461999999806,3840,Limburg,3
"50.887451499999855, 4.418461999999806",BE,Haren,Haren,DUT,50.887451499999855,4.418461999999806,1130,Brussel,1
"50.62734699999984, 3.779262999999787",BE,Ath,Ath,FRE,50.62734699999984,3.779262999999787,7800,Henegouwen,7
"50.91146149999983, 3.989882999999793",BE,Ede,Ede,DUT,50.91146149999983,3.989882999999793,0,,0
"50.86990449999985, 5.50965149999979",BE,Bilzen,Bilzen,DUT,50.86990449999985,5.50965149999979,3740,Limburg,3
"50.26254699999984, 5.122918499999797",BE,Chapois,Chapois,FRE,50.26254699999984,5.122918499999797,0,,0
"50.71591249999983, 4.603145499999783",BE,Wavre,Wavre,FRE,50.71591249999983,4.603145499999783,1300,Waals-Brabant,1
"50.34299899999985, 4.28967799999981",BE,Thuin,Thuin,FRE,50.34299899999985,4.28967799999981,6530,Henegouwen,6
"51.00291849999985, 4.866608499999785",BE,Langdorp,Langdorp,DUT,51.00291849999985,4.866608499999785,3201,Vlaams-Brabant,3
"50.80031599999984, 3.112943499999801",BE,Menen,Menen,DUT,50.80031599999984,3.112943499999801,8930,West-Vlaanderen,8
"50.45286599999983, 4.694223999999792",BE,Moustier,Moustier,FRE,50.45286599999983,4.694223999999792,7911,Henegouwen,7
"51.19757499999983, 3.216030499999789",BE,Brugge,Brugge,DUT,51.19757499999983,3.216030499999789,8000,West-Vlaanderen,8
"50.506084999999835, 4.234594499999787",BE,Manage,Manage,FRE,50.506084999999835,4.234594499999787,7170,Henegouwen,7
"50.884235999999845, 4.471071499999794",BE,Zaventem,Zaventem,DUT,50.884235999999845,4.471071499999794,1930,Vlaams-Brabant,1
"50.78201899999985, 3.048583499999808",BE,Wervik,Wervik,DUT,50.78201899999985,3.048583499999808,8940,West-Vlaanderen,8
"49.71838849999983, 5.632644",BE,Habay,Habay,FRE,49.71838849999983,5.632644,0,,0
"51.180671999999845, 4.826960999999784",BE,Herentals,Herentals,DUT,51.180671999999845,4.826960999999784,2200,Antwerpen,2
"51.037941499999846, 4.772241999999806",BE,Booischot,Booischot,DUT,51.037941499999846,4.772241999999806,2221,Antwerpen,2
"50.55368849999985, 5.330675999999784",BE,Haute-Flône,Haute-Flone,FRE,50.55368849999985,5.330675999999784,0,,0
"50.891365499999836, 3.857736499999789",BE,Hillegem,Hillegem,DUT,50.891365499999836,3.857736499999789,9550,Oost-Vlaanderen,9
"51.13763099999982, 4.338623499999784",BE,Hemiksem,Hemiksem,DUT,51.13763099999982,4.338623499999784,2620,Antwerpen,2
"50.953979999999824, 5.3455914999997844",BE,Keiwit,Keiwit,DUT,50.953979999999824,5.3455914999997844,0,,0
"51.17415299999985, 4.900761999999787",BE,Olen,Olen,DUT,51.17415299999985,4.900761999999787,2250,Antwerpen,2
"50.73930399999983, 3.226783499999812",BE,Mouscron,Mouscron,FRE,50.73930399999983,3.226783499999812,0,,0
"50.902828999999855, 4.051391999999794",BE,Welle,Welle,DUT,50.902828999999855,4.051391999999794,9473,Oost-Vlaanderen,9
"50.66436099999984, 5.396496999999783",BE,Fexhe-le-Haut-Clocher,Fexhe-le-Haut-Clocher,FRE,50.66436099999984,5.396496999999783,0,,0
"50.97509049999985, 4.186397999999798",BE,Opwijk,Opwijk,DUT,50.97509049999985,4.186397999999798,1745,Vlaams-Brabant,1
"50.87145299999983, 3.624263999999783",BE,Eine,Eine,DUT,50.87145299999983,3.624263999999783,9700,Oost-Vlaanderen,9
"50.41038999999983, 3.686556999999794",BE,Quiévrain,Quievrain,FRE,50.41038999999983,3.686556999999794,7380,Henegouwen,7
"51.358007999999835, 4.629455499999807",BE,Noorderkempen,Noorderkempen,DUT,51.358007999999835,4.629455499999807,0,,0
"50.75077849999985, 4.258306499999804",BE,Buizingen,Buizingen,DUT,50.75077849999985,4.258306499999804,1501,Vlaams-Brabant,1
"50.454326999999836, 4.880964499999805",BE,Jambes-Est,Jambes-Est,FRE,50.454326999999836,4.880964499999805,0,,0
"50.37876199999985, 5.518975999999782",BE,Bomal,Bomal,FRE,50.37876199999985,5.518975999999782,1367,Waals-Brabant,1
"51.046257499999854, 3.657123999999812",BE,Drongen,Drongen,DUT,51.046257499999854,3.657123999999812,9031,Oost-Vlaanderen,9
"50.661342999999846, 5.50861599999979",BE,Ans,Ans,FRE,50.661342999999846,5.50861599999979,4430,Luik,4
"50.74807449999983, 5.079479499999792",BE,Landen,Landen,DUT,50.74807449999983,5.079479499999792,3400,Vlaams-Brabant,3
"50.37738499999983, 4.350467499999809",BE,Landelies,Landelies,FRE,50.37738499999983,4.350467499999809,6111,Henegouwen,6
"51.00311349999984, 3.921714499999808",BE,Schellebelle,Schellebelle,DUT,51.00311349999984,3.921714499999808,9260,Oost-Vlaanderen,9
"50.451092499999845, 3.884803999999804",BE,Jemappes,Jemappes,FRE,50.451092499999845,3.884803999999804,7012,Henegouwen,7
"50.08971849999983, 5.279779999999788",BE,Grupont,Grupont,FRE,50.08971849999983,5.279779999999788,6927,Luxemburg,6
"50.259712499999836, 4.906423499999788",BE,Dinant,Dinant,FRE,50.259712499999836,4.906423499999788,5500,Namen,5
"50.398472499999855, 4.396296499999806",BE,Marchienne-Zone,Marchienne-Zone,FRE,50.398472499999855,4.396296499999806,0,,0
"50.97835199999983, 3.800584999999785",BE,Gontrode,Gontrode,DUT,50.97835199999983,3.800584999999785,9090,Oost-Vlaanderen,9
"50.99096449999985, 3.8272695",BE,Kwatrecht,Kwatrecht,DUT,50.99096449999985,3.8272695,0,,0
"50.97157949999984, 3.792537999999809",BE,Landskouter,Landskouter,DUT,50.97157949999984,3.792537999999809,9860,Oost-Vlaanderen,9
"51.094276999999835, 4.672694999999806",BE,Melkhouven,Melkhouven,DUT,51.094276999999835,4.672694999999806,0,,0
"50.738083499999846, 4.497450999999785",BE,La-Hulpe,La-Hulpe,FRE,50.738083499999846,4.497450999999785,0,,0
"50.861919999999856, 4.693575999999808",BE,Heverlee,Heverlee,DUT,50.861919999999856,4.693575999999808,3001,Vlaams-Brabant,3
"50.39188049999984, 3.909545999999807",BE,Genly,Genly,FRE,50.39188049999984,3.909545999999807,7040,Henegouwen,7
"50.78596549999983, 5.473231499999798",BE,Tongeren,Tongeren,DUT,50.78596549999983,5.473231499999798,3700,Limburg,3
"50.31309549999983, 4.160327499999795",BE,Solre-sur-Sambre,Solre-sur-Sambre,FRE,50.31309549999983,4.160327499999795,0,,0
"50.35863949999984, 5.054821999999803",BE,Florée,Floree,FRE,50.35863949999984,5.054821999999803,5334,Namen,5
"50.847942999999844, 2.874023499999793",BE,Ieper,Ieper,DUT,50.847942999999844,2.874023499999793,8900,West-Vlaanderen,8
"50.66162149999985, 5.430906499999793",BE,Voroux-Goreux,Voroux-Goreux,FRE,50.66162149999985,5.430906499999793,4347,Luik,4
"50.523739499999834, 5.823247499999809",BE,Franchimont,Franchimont,FRE,50.523739499999834,5.823247499999809,5600,Namen,5
"50.873653999999846, 4.292559999999809",BE,Sint-Agatha-Berchem,Sint-Agatha-Berchem,DUT,50.873653999999846,4.292559999999809,0,,0
"51.42684249999985, 4.465821499999805",BE,Wildert,Wildert,DUT,51.42684249999985,4.465821499999805,0,,0
"50.457641999999844, 5.567483499999781",BE,Comblain-la-Tour,Comblain-la-Tour,FRE,50.457641999999844,5.567483499999781,0,,0
"50.543968499999835, 5.810857999999796",BE,Justenville,Justenville,FRE,50.543968499999835,5.810857999999796,0,,0
"49.90327499999983, 5.098525999999794",BE,Calsbourg,Calsbourg,FRE,49.90327499999983,5.098525999999794,0,,0
"50.736709999999846, 4.649476999999791",BE,Gastuche,Gastuche,FRE,50.736709999999846,4.649476999999791,0,,0
"50.55625949999984, 4.551587999999782",BE,Tilly,Tilly,FRE,50.55625949999984,4.551587999999782,1495,Waals-Brabant,1
"50.650429499999824, 4.17567299999979",BE,Hennuyères,Hennuyeres,FRE,50.650429499999824,4.17567299999979,7090,Henegouwen,7
"51.16801099999984, 5.166573499999799",BE,Balen,Balen,DUT,51.16801099999984,5.166573499999799,2490,Antwerpen,2
"50.61164899999983, 5.595513999999781",BE,Angleur,Angleur,FRE,50.61164899999983,5.595513999999781,4031,Luik,4
"50.62217399999983, 4.549340499999801",BE,Faux,Faux,FRE,50.62217399999983,4.549340499999801,0,,0
"51.00433049999984, 4.1356374999998025",BE,Lebbeke,Lebbeke,DUT,51.00433049999984,4.1356374999998025,9280,Oost-Vlaanderen,9
"50.76378699999984, 5.034926499999783",BE,Neerwinden,Neerwinden,DUT,50.76378699999984,5.034926499999783,3400,Vlaams-Brabant,3
"50.53080799999984, 5.573186499999792",BE,Esneux,Esneux,FRE,50.53080799999984,5.573186499999792,4130,Luik,4
"51.21095699999984, 4.2850454999997964",BE,Melsele,Melsele,DUT,51.21095699999984,4.2850454999997964,9120,Oost-Vlaanderen,9
"50.210193999999824, 4.965437499999808",BE,Gendron-celles,Gendron-celles,FRE,50.210193999999824,4.965437499999808,0,,0
"50.42712449999984, 4.888203999999803",BE,Dave-Saint-Martin,Dave-Saint-Martin,FRE,50.42712449999984,4.888203999999803,0,,0
"51.21529399999983, 5.423087999999808",BE,Overpelt,Overpelt,DUT,51.21529399999983,5.423087999999808,3900,Limburg,3
"50.61939299999983, 5.500493499999806",BE,Jemeppe-sur-Meuse,Jemeppe-sur-Meuse,FRE,50.61939299999983,5.500493499999806,0,,0
"51.077717499999835, 4.282810999999811",BE,Puurs,Puurs,DUT,51.077717499999835,4.282810999999811,2870,Antwerpen,2
"51.463452999999845, 4.450405499999789",BE,Essen,Essen,DUT,51.463452999999845,4.450405499999789,2910,Antwerpen,2
"50.891575499999846, 4.071875999999803",BE,Denderleeuw,Denderleeuw,DUT,50.891575499999846,4.071875999999803,9470,Oost-Vlaanderen,9
"50.202507499999854, 5.313542999999783",BE,Marloie,Marloie,FRE,50.202507499999854,5.313542999999783,0,,0
"50.403125999999844, 5.522635999999807",BE,Sy,Sy,FRE,50.403125999999844,5.522635999999807,0,,0
"50.77986949999984, 4.651727499999794",BE,Pecrot,Pecrot,FRE,50.77986949999984,4.651727499999794,0,,0
"50.74901249999985, 4.361586499999788",BE,Sint-Genesius-Rode,Sint-Genesius-Rode,DUT,50.74901249999985,4.361586499999788,0,,0
"50.988541499999855, 4.498308999999807",BE,Hofstade,Hofstade,DUT,50.988541499999855,4.498308999999807,1981,Vlaams-Brabant,1
"50.988541499999855, 4.498308999999807",BE,Hofstade,Hofstade,DUT,50.988541499999855,4.498308999999807,9308,Oost-Vlaanderen,9
"51.31222999999982, 4.432928499999804",BE,Kapellen,Kapellen,DUT,51.31222999999982,4.432928499999804,2950,Antwerpen,2
"51.31222999999982, 4.432928499999804",BE,Kapellen,Kapellen,DUT,51.31222999999982,4.432928499999804,3381,Vlaams-Brabant,3
"51.06028449999985, 3.742017499999804",BE,Gent-Dampoort,Gent-Dampoort,DUT,51.06028449999985,3.742017499999804,0,,0
"50.928337999999854, 3.963754999999793",BE,Erpe-Mere,Erpe-Mere,DUT,50.928337999999854,3.963754999999793,0,,0
"51.010835499999835, 4.358374499999798",BE,Kapelle-op-den-Bos,Kapelle-op-den-Bos,DUT,51.010835499999835,4.358374499999798,0,,0
"50.613632499999845, 3.396454999999804",BE,Tournai,Tournai,FRE,50.613632499999845,3.396454999999804,7500,Henegouwen,7
"50.60616349999984, 5.477972499999794",BE,Flémalle-Grande,Flemalle-Grande,FRE,50.60616349999984,5.477972499999794,4400,Luik,4
"50.60974199999984, 4.539065999999792",BE,La-Roche,La-Roche,FRE,50.60974199999984,4.539065999999792,0,,0
"51.23026849999985, 2.924604499999788",BE,Oostende,Oostende,DUT,51.23026849999985,2.924604499999788,8400,West-Vlaanderen,8
"50.802418499999845, 4.323631999999805",BE,Ukkel-Stalle,Ukkel-Stalle,DUT,50.802418499999845,4.323631999999805,0,,0
"50.87790399999982, 4.379761499999802",BE,Schaarbeek,Schaarbeek,DUT,50.87790399999982,4.379761499999802,1030,Brussel,1
"51.150081999999855, 4.086382499999786",BE,Belsele,Belsele,DUT,51.150081999999855,4.086382499999786,9111,Oost-Vlaanderen,9
"50.47026149999985, 4.055082499999799",BE,Havre,Havre,FRE,50.47026149999985,4.055082499999799,7021,Henegouwen,7
"50.36920599999985, 5.8735595",BE,Trois-Ponts,Trois-Ponts,FRE,50.36920599999985,5.8735595,0,,0
"50.82469999999984, 3.263660999999786",BE,Kortrijk,Kortrijk,DUT,50.82469999999984,3.263660999999786,8500,West-Vlaanderen,8
"50.80069399999985, 4.651279499999788",BE,Sint-Joris-Weert,Sint-Joris-Weert,DUT,50.80069399999985,4.651279499999788,3051,Vlaams-Brabant,3
"51.10755199999983, 3.386240999999785",BE,Maria-Aalter,Maria-Aalter,DUT,51.10755199999983,3.386240999999785,0,,0
"51.00134999999983, 3.972000499999808",BE,Wichelen,Wichelen,DUT,51.00134999999983,3.972000499999808,9260,Oost-Vlaanderen,9
"50.82000799999983, 4.405794499999786",BE,Delta,Delta,DUT,50.82000799999983,4.405794499999786,0,,0
"50.85236849999984, 2.737118999999808",BE,Poperinge,Poperinge,DUT,50.85236849999984,2.737118999999808,8970,West-Vlaanderen,8
"50.527866999999844, 5.232418499999795",BE,Huy,Huy,FRE,50.527866999999844,5.232418499999795,4500,Luik,4
"50.53136299999983, 3.518594999999806",BE,Callenelle,Callenelle,FRE,50.53136299999983,3.518594999999806,7604,Henegouwen,7
"50.88147049999983, 4.115651999999784",BE,Essene-Lombeek,Essene-Lombeek,DUT,50.88147049999983,4.115651999999784,0,,0
"50.64587799999984, 4.364080499999801",BE,Lillois,Lillois,FRE,50.64587799999984,4.364080499999801,0,,0
"50.28465699999983, 5.442302999999782",BE,Melreux-Hotton,Melreux-Hotton,FRE,50.28465699999983,5.442302999999782,0,,0
"50.95911099999984, 4.636862999999806",BE,Wespelaar-Tildonk,Wespelaar-Tildonk,DUT,50.95911099999984,4.636862999999806,0,,0
"50.40985199999983, 4.175206499999803",BE,Binche,Binche,FRE,50.40985199999983,4.175206499999803,7130,Henegouwen,7
"50.81737199999983, 3.826829999999802",BE,Lierde,Lierde,DUT,50.81737199999983,3.826829999999802,0,,0
"50.43305649999984, 4.325428999999787",BE,Forchies,Forchies,FRE,50.43305649999984,4.325428999999787,0,,0
"50.095222999999834, 4.525929999999789",BE,Mariembourg,Mariembourg,FRE,50.095222999999834,4.525929999999789,5660,Namen,5
"50.70977499999984, 4.596219999999789",BE,Bierges-Walibi,Bierges-Walibi,FRE,50.70977499999984,4.596219999999789,0,,0
"51.161808499999836, 4.496034999999807",BE,Boechout,Boechout,DUT,51.161808499999836,4.496034999999807,2530,Antwerpen,2
"50.726482999999824, 4.514195999999799",BE,Genval,Genval,FRE,50.726482999999824,4.514195999999799,1332,Waals-Brabant,1
"51.18053149999983, 3.578686999999803",BE,Eeklo,Eeklo,DUT,51.18053149999983,3.578686999999803,9900,Oost-Vlaanderen,9
"50.734634999999855, 3.994602999999785",BE,Tollembeek,Tollembeek,DUT,50.734634999999855,3.994602999999785,1570,Vlaams-Brabant,1
"50.34902999999983, 5.504180499999791",BE,Barvaux,Barvaux,FRE,50.34902999999983,5.504180499999791,0,,0
"50.47927899999985, 4.180150999999796",BE,La-Louvière-Centre,La-Louviere-Centre,FRE,50.47927899999985,4.180150999999796,0,,0
"51.38871049999983, 4.467356499999794",BE,Kalmthout,Kalmthout,DUT,51.38871049999983,4.467356499999794,2920,Antwerpen,2
"50.53630099999984, 3.963212",BE,Masnuy-Saint-Pierre,Masnuy-Saint-Pierre,FRE,50.53630099999984,3.963212,7050,Henegouwen,7
"51.01638849999983, 4.483680499999791",BE,Mechelen,Mechelen,DUT,51.01638849999983,4.483680499999791,2800,Antwerpen,2
"50.469948499999845, 4.100552499999793",BE,Thieu,Thieu,FRE,50.469948499999845,4.100552499999793,7070,Henegouwen,7
"51.12548899999984, 4.224084999999802",BE,Temse,Temse,DUT,51.12548899999984,4.224084999999802,9140,Oost-Vlaanderen,9
"50.514034999999836, 3.591924499999805",BE,Péruwelz,Peruwelz,FRE,50.514034999999836,3.591924499999805,7600,Henegouwen,7
"51.10695699999985, 3.984703499999796",BE,Lokeren,Lokeren,DUT,51.10695699999985,3.984703499999796,9160,Oost-Vlaanderen,9
"50.61915999999985, 4.636366999999808",BE,Blanmont,Blanmont,FRE,50.61915999999985,4.636366999999808,0,,0
"50.23793499999985, 4.490834499999806",BE,Yves-Gomezée,Yves-Gomezee,FRE,50.23793499999985,4.490834499999806,5650,Namen,5
"51.18244249999983, 4.447082999999793",BE,Mortsel-Deurnesteeweg,Mortsel-Deurnesteeweg,DUT,51.18244249999983,4.447082999999793,0,,0
"50.30942599999983, 4.130626999999805",BE,Erquelinnes-Village,Erquelinnes-Village,FRE,50.30942599999983,4.130626999999805,0,,0
"50.915310499999826, 3.2504574999998113",BE,Ingelmunster,Ingelmunster,DUT,50.915310499999826,3.2504574999998113,8770,West-Vlaanderen,8
"50.46537849999984, 4.187719499999787",BE,La-Louvière-Sud,La-Louviere-Sud,FRE,50.46537849999984,4.187719499999787,0,,0
"49.56039449999982, 5.517736499999785",BE,Virton,Virton,FRE,49.56039449999982,5.517736499999785,6760,Luxemburg,6
"51.034946999999846, 3.7125309999997853",BE,Gent-Sint-Pieters,Gent-Sint-Pieters,DUT,51.034946999999846,3.7125309999997853,0,,0
"50.480991499999845, 4.965312999999782",BE,Marche-les-Dames,Marche-les-Dames,FRE,50.480991499999845,4.965312999999782,0,,0
"50.83586899999983, 4.401123999999783",BE,Merode,Merode,DUT,50.83586899999983,4.401123999999783,0,,0
"50.89654999999985, 3.877936499999805",BE,Herzele,Herzele,DUT,50.89654999999985,3.877936499999805,9550,Oost-Vlaanderen,9
"50.510372499999846, 5.579202499999809",BE,Poulseur,Poulseur,FRE,50.510372499999846,5.579202499999809,4171,Luik,4
"50.987903999999844, 4.559552499999796",BE,Hever,Hever,DUT,50.987903999999844,4.559552499999796,3191,Vlaams-Brabant,3
"49.72931349999985, 5.539268499999793",BE,Marbehan,Marbehan,FRE,49.72931349999985,5.539268499999793,0,,0
"50.59216399999985, 5.863256499999807",BE,Verviers-Palais,Verviers-Palais,FRE,50.59216399999985,5.863256499999807,0,,0
"50.40451849999985, 4.43902749999981",BE,Charleroi-Sud,Charleroi-Sud,FRE,50.40451849999985,4.43902749999981,0,,0
"50.49314949999984, 4.2917645",BE,Godarville,Godarville,FRE,50.49314949999984,4.2917645,7160,Henegouwen,7
"50.86662349999983, 4.242361499999788",BE,Bilbeek,Bilbeek,DUT,50.86662349999983,4.242361499999788,0,,0
"50.63839049999984, 4.612920499999801",BE,Mont-Saint-Guibert,Mont-Saint-Guibert,FRE,50.63839049999984,4.612920499999801,0,,0
"50.85602249999985, 3.315969999999794",BE,Harelbeke,Harelbeke,DUT,50.85602249999985,3.315969999999794,8530,West-Vlaanderen,8
"50.87439799999984, 3.700632999999783",BE,Sint-Denis-Boekel,Sint-Denis-Boekel,DUT,50.87439799999984,3.700632999999783,0,,0
"50.61961749999983, 5.935448999999807",BE,Dolhain-Gileppe,Dolhain-Gileppe,FRE,50.61961749999983,5.935448999999807,0,,0
"50.293034499999834, 5.089721499999797",BE,Ciney,Ciney,FRE,50.293034499999834,5.089721499999797,5590,Namen,5
"51.06377099999983, 3.578752499999808",BE,Landegem,Landegem,DUT,51.06377099999983,3.578752499999808,9850,Oost-Vlaanderen,9
"51.15321399999984, 4.465566499999795",BE,Hove,Hove,DUT,51.15321399999984,4.465566499999795,2540,Antwerpen,2
"50.22324399999985, 5.347327499999807",BE,Marche-en-Famenne,Marche-en-Famenne,FRE,50.22324399999985,5.347327499999807,0,,0
"49.91980399999986, 5.379720499999792",BE,Libramont,Libramont,FRE,49.91980399999986,5.379720499999792,0,,0
"51.00988449999983, 4.945672499999802",BE,Testelt,Testelt,DUT,51.00988449999983,4.945672499999802,3272,Vlaams-Brabant,3
"50.965816999999845, 4.615302499999785",BE,Haacht,Haacht,DUT,50.965816999999845,4.615302499999785,3150,Vlaams-Brabant,3
"50.49744849999985, 5.093985499999802",BE,Andenne,Andenne,FRE,50.49744849999985,5.093985499999802,5300,Namen,5
"51.32370849999984, 4.938308999999805",BE,Turnhout,Turnhout,DUT,51.32370849999984,4.938308999999805,2300,Antwerpen,2
"51.07253299999985, 4.7111855",BE,Heist-op-den-Berg,Heist-op-den-Berg,DUT,51.07253299999985,4.7111855,0,,0
"51.04106599999983, 3.754803499999809",BE,Gentbrugge,Gentbrugge,DUT,51.04106599999983,3.754803499999809,9050,Oost-Vlaanderen,9
"50.60064749999983, 3.831495499999789",BE,Mévergnies-Attre,Mevergnies-Attre,FRE,50.60064749999983,3.831495499999789,0,,0
"50.72467849999983, 4.013200499999783",BE,Herne,Herne,DUT,50.72467849999983,4.013200499999783,1540,Vlaams-Brabant,1
"50.69475249999985, 5.247828499999798",BE,Waremme,Waremme,FRE,50.69475249999985,5.247828499999798,4300,Luik,4
"51.00670649999984, 4.987273499999787",BE,Zichem,Zichem,DUT,51.00670649999984,4.987273499999787,3271,Vlaams-Brabant,3
"50.778209999999824, 4.329257999999783",BE,Moensberg,Moensberg,DUT,50.778209999999824,4.329257999999783,0,,0
"51.21501599999985, 4.420979999999787",BE,Antwerpen-Centraal,Antwerpen-Centraal,DUT,51.21501599999985,4.420979999999787,0,,0
"51.18444849999983, 4.181160999999804",BE,Nieuwkerken-Waas,Nieuwkerken-Waas,DUT,51.18444849999983,4.181160999999804,9100,Oost-Vlaanderen,9
"50.89622949999983, 4.585837499999798",BE,Erps-Kwerps,Erps-Kwerps,DUT,50.89622949999983,4.585837499999798,3071,Vlaams-Brabant,3
"51.07716099999985, 2.599373499999786",BE,De-Panne,De-Panne,DUT,51.07716099999985,2.599373499999786,0,,0
"50.98434549999985, 3.42060749999979",BE,Aarsele,Aarsele,DUT,50.98434549999985,3.42060749999979,8700,West-Vlaanderen,8
"49.893692499999844, 5.121327999999806",BE,Paliseul,Paliseul,FRE,49.893692499999844,5.121327999999806,6850,Luxemburg,6
"50.34204149999985, 3.909913999999787",BE,Quévy,Quevy,FRE,50.34204149999985,3.909913999999787,0,,0
"50.132171999999855, 5.274253499999787",BE,Forrières,Forrieres,FRE,50.132171999999855,5.274253499999787,6953,Luxemburg,6
"50.75112599999983, 4.266674499999795",BE,Huisingen,Huisingen,DUT,50.75112599999983,4.266674499999795,0,,0
"51.07271999999983, 3.537759499999794",BE,Hansbeke,Hansbeke,DUT,51.07271999999983,3.537759499999794,9850,Oost-Vlaanderen,9
"50.46340249999982, 4.4007039999997914",BE,Courcelles-Motte,Courcelles-Motte,FRE,50.46340249999982,4.4007039999997914,0,,0
"50.58682699999983, 5.854529999999784",BE,Verviers-Central,Verviers-Central,FRE,50.58682699999983,5.854529999999784,0,,0
"51.17081899999985, 4.141961499999809",BE,Sint-Niklaas,Sint-Niklaas,DUT,51.17081899999985,4.141961499999809,0,,0
"50.922203999999844, 4.7022135",BE,Wijgmaal,Wijgmaal,DUT,50.922203999999844,4.7022135,3018,Vlaams-Brabant,3
"50.81977499999985, 4.389767999999805",BE,Etterbeek,Etterbeek,DUT,50.81977499999985,4.389767999999805,1040,Brussel,1
"50.71432199999984, 3.837091499999786",BE,Lessines,Lessines,FRE,50.71432199999984,3.837091499999786,7860,Henegouwen,7
"50.43089749999984, 4.211612499999802",BE,Leval,Leval,FRE,50.43089749999984,4.211612499999802,0,,0
"50.981434499999835, 4.574482499999789",BE,Boortmeerbeek,Boortmeerbeek,DUT,50.981434499999835,4.574482499999789,3190,Vlaams-Brabant,3
"51.02169099999983, 4.117692499999805",BE,Sint-Gillis,Sint-Gillis,DUT,51.02169099999983,4.117692499999805,0,,0
"50.43183999999985, 4.608264499999791",BE,Tamines,Tamines,FRE,50.43183999999985,4.608264499999791,5060,Namen,5
"50.96325349999984, 5.189250499999786",BE,Schulen,Schulen,DUT,50.96325349999984,5.189250499999786,3540,Limburg,3
"50.42958899999985, 4.584159499999799",BE,Aiseau,Aiseau,FRE,50.42958899999985,4.584159499999799,6250,Henegouwen,6
"50.463718999999855, 3.725953499999803",BE,Ville-Pommeroeul,Ville-Pommeroeul,FRE,50.463718999999855,3.725953499999803,7322,Henegouwen,7
"49.56512799999984, 5.830518999999782",BE,Athus,Athus,FRE,49.56512799999984,5.830518999999782,6791,Luxemburg,6
"50.79391149999983, 4.362431999999784",BE,Sint-Job,Sint-Job,DUT,50.79391149999983,4.362431999999784,0,,0
"51.02149299999985, 4.800997999999794",BE,Begijnendijk,Begijnendijk,DUT,51.02149299999985,4.800997999999794,3130,Vlaams-Brabant,3
"50.38927099999984, 4.996272999999802",BE,Courrière,Courriere,FRE,50.38927099999984,4.996272999999802,5336,Namen,5
"50.712814999999836, 4.219291999999796",BE,Lembeek,Lembeek,DUT,50.712814999999836,4.219291999999796,1502,Vlaams-Brabant,1
"50.300205499999834, 4.392170499999793",BE,Cour-sur-Heure,Cour-sur-Heure,FRE,50.300205499999834,4.392170499999793,0,,0
"50.96252149999984, 3.627959499999803",BE,Eke-Nazareth,Eke-Nazareth,DUT,50.96252149999984,3.627959499999803,0,,0
"50.48771349999984, 3.905502499999784",BE,Ghlin,Ghlin,FRE,50.48771349999984,3.905502499999784,7011,Henegouwen,7
"51.11422399999984, 4.637816499999786",BE,Berlaar,Berlaar,DUT,51.11422399999984,4.637816499999786,2590,Antwerpen,2
"51.01465299999984, 4.06249649999981",BE,Oudegem,Oudegem,DUT,51.01465299999984,4.06249649999981,9200,Oost-Vlaanderen,9
"50.36441849999983, 4.308397999999784",BE,Hourpes,Hourpes,FRE,50.36441849999983,4.308397999999784,0,,0
"51.21440949999984, 4.327209999999809",BE,Zwijndrecht,Zwijndrecht,DUT,51.21440949999984,4.327209999999809,2070,Antwerpen,2
"50.90763149999984, 4.01822199999981",BE,Haaltert,Haaltert,DUT,50.90763149999984,4.01822199999981,9450,Oost-Vlaanderen,9
"50.32155649999984, 4.405281499999802",BE,Ham-sur-Heure,Ham-sur-Heure,FRE,50.32155649999984,4.405281499999802,0,,0
"50.659504499999855, 5.9747289999997975",BE,Welkenraedt,Welkenraedt,FRE,50.659504499999855,5.9747289999997975,4840,Luik,4
"50.85818499999985, 4.054906999999787",BE,Okegem,Okegem,DUT,50.85818499999985,4.054906999999787,9400,Oost-Vlaanderen,9
"50.52424299999984, 5.191718999999807",BE,Bas-Oha,Bas-Oha,FRE,50.52424299999984,5.191718999999807,4520,Luik,4
"50.48236149999985, 4.544973",BE,Fleurus,Fleurus,FRE,50.48236149999985,4.544973,6220,Henegouwen,6
"50.85633899999985, 4.394195499999796",BE,Meiser,Meiser,DUT,50.85633899999985,4.394195499999796,0,,0
"51.29559749999984, 3.194807499999797",BE,Lissewege,Lissewege,DUT,51.29559749999984,3.194807499999797,8380,West-Vlaanderen,8
"50.514313499999844, 4.676699999999784",BE,Mazy,Mazy,FRE,50.514313499999844,4.676699999999784,5032,Namen,5
"49.69090699999984, 5.766931999999797",BE,Stockem,Stockem,FRE,49.69090699999984,5.766931999999797,0,,0
"50.906788499999834, 3.919838999999797",BE,Burst,Burst,DUT,50.906788499999834,3.919838999999797,9420,Oost-Vlaanderen,9
"50.79262599999984, 4.296135499999792",BE,Ruisbroek,Ruisbroek,DUT,50.79262599999984,4.296135499999792,1601,Vlaams-Brabant,1
"50.79262599999984, 4.296135499999792",BE,Ruisbroek,Ruisbroek,DUT,50.79262599999984,4.296135499999792,2870,Antwerpen,2
"50.26688049999984, 5.109179999999782",BE,Leignon,Leignon,FRE,50.26688049999984,5.109179999999782,5590,Namen,5
"50.809547999999836, 4.3205909999998084",BE,Vorst-Oost,Vorst-Oost,DUT,50.809547999999836,4.3205909999998084,0,,0
"50.46929249999985, 4.862330999999784",BE,Namur,Namur,FRE,50.46929249999985,4.862330999999784,5000,Namen,5
"51.09178899999983, 3.450412999999798",BE,Aalter,Aalter,DUT,51.09178899999983,3.450412999999798,9880,Oost-Vlaanderen,9
"49.67958099999984, 5.808375999999782",BE,Arlon,Arlon,FRE,49.67958099999984,5.808375999999782,6700,Luxemburg,6
"50.88138649999985, 4.716138999999799",BE,Leuven,Leuven,DUT,50.88138649999985,4.716138999999799,3000,Vlaams-Brabant,3
"50.66350249999985, 5.6218489999997985",BE,Herstal,Herstal,FRE,50.66350249999985,5.6218489999997985,4040,Luik,4
"51.332618999999845, 3.182457999999798",BE,Zeebrugge Strand,Zeebrugge Strand,DUT,51.332618999999845,3.182457999999798,0,,0
"50.90850899999984, 4.419057999999808",BE,Buda,Buda,DUT,50.90850899999984,4.419057999999808,0,,0
"50.57072899999983, 3.450124499999788",BE,Antoing,Antoing,FRE,50.57072899999983,3.450124499999788,7640,Henegouwen,7
"51.20772199999985, 4.430305499999804",BE,Antwerpen-Oost,Antwerpen-Oost,DUT,51.20772199999985,4.430305499999804,0,,0
"50.83928349999985, 4.373235499999793",BE,Brussel-Luxemburg,Brussel-Luxemburg,DUT,50.83928349999985,4.373235499999793,0,,0
"51.09300649999983, 4.3591889999997875",BE,Boom,Boom,DUT,51.09300649999983,4.3591889999997875,2850,Antwerpen,2
"50.85073549999984, 3.601528499999801",BE,Oudenaarde,Oudenaarde,DUT,50.85073549999984,3.601528499999801,9700,Oost-Vlaanderen,9
"50.76026949999985, 4.467277999999794",BE,Hoeilaart,Hoeilaart,DUT,50.76026949999985,4.467277999999794,1560,Vlaams-Brabant,1
"50.868126499999846, 4.400641999999806",BE,Evere,Evere,DUT,50.868126499999846,4.400641999999806,1140,Brussel,1
"50.90001349999983, 4.633733999999805",BE,Veltem,Veltem,DUT,50.90001349999983,4.633733999999805,0,,0
"50.370910999999836, 4.878919999999794",BE,Lustin,Lustin,FRE,50.370910999999836,4.878919999999794,5170,Namen,5
"50.92334449999984, 4.432778999999783",BE,Vilvoorde,Vilvoorde,DUT,50.92334449999984,4.432778999999783,1800,Vlaams-Brabant,1
"50.56802799999985, 5.806242999999796",BE,Pepinster,Pepinster,FRE,50.56802799999985,5.806242999999796,4860,Luik,4
"50.454743499999836, 3.940247499999799",BE,Mons,Mons,FRE,50.454743499999836,3.940247499999799,7000,Henegouwen,7
"50.18904249999983, 5.954042499999787",BE,Gouvy,Gouvy,FRE,50.18904249999983,5.954042499999787,6670,Luxemburg,6
"50.98844599999984, 4.157718499999788",BE,Heizijde,Heizijde,DUT,50.98844599999984,4.157718499999788,0,,0
"50.903103499999844, 4.6728284999998095",BE,Herent,Herent,DUT,50.903103499999844,4.6728284999998095,3020,Vlaams-Brabant,3
"50.05873949999983, 4.490026999999799",BE,Couvin,Couvin,FRE,50.05873949999983,4.490026999999799,5660,Namen,5
"50.693054499999846, 4.5497959999997875",BE,Profondsart,Profondsart,FRE,50.693054499999846,4.5497959999997875,0,,0
"50.69243249999985, 4.574981999999807",BE,Limal,Limal,FRE,50.69243249999985,4.574981999999807,1300,Waals-Brabant,1
"50.669662999999844, 5.368562999999795",BE,Momalle,Momalle,FRE,50.669662999999844,5.368562999999795,4350,Luik,4
"50.98970099999985, 3.328075999999811",BE,Tielt,Tielt,DUT,50.98970099999985,3.328075999999811,3390,Vlaams-Brabant,3
"50.98970099999985, 3.328075999999811",BE,Tielt,Tielt,DUT,50.98970099999985,3.328075999999811,8700,West-Vlaanderen,8
"50.874141999999836, 4.166529999999796",BE,Ternat,Ternat,DUT,50.874141999999836,4.166529999999796,1740,Vlaams-Brabant,1
"51.09209899999985, 4.492790999999784",BE,Duffel,Duffel,DUT,51.09209899999985,4.492790999999784,2570,Antwerpen,2
"50.25891899999984, 4.437205499999806",BE,Walcourt,Walcourt,FRE,50.25891899999984,4.437205499999806,5650,Namen,5
"50.76717399999984, 4.274241999999788",BE,Lot,Lot,DUT,50.76717399999984,4.274241999999788,1651,Vlaams-Brabant,1
"50.39371549999984, 4.468773999999797",BE,Couillet,Couillet,FRE,50.39371549999984,4.468773999999797,6010,Henegouwen,6
"50.73956049999984, 5.694187999999798",BE,Visé,Vise,FRE,50.73956049999984,5.694187999999798,4600,Luik,4
"50.47115799999983, 4.998549499999797",BE,Namêche,Nameche,FRE,50.47115799999983,4.998549499999797,5300,Namen,5
"51.33662299999983, 3.264471499999786",BE,Duinbergen,Duinbergen,DUT,51.33662299999983,3.264471499999786,0,,0
"50.019325999999836, 5.290142999999802",BE,Poix-Saint-Hubert,Poix-Saint-Hubert,FRE,50.019325999999836,5.290142999999802,0,,0
"50.696987999999834, 4.04718349999979",BE,Enghien,Enghien,FRE,50.696987999999834,4.04718349999979,0,,0
"50.45625349999983, 4.806537499999791",BE,Flawinne,Flawinne,FRE,50.45625349999983,4.806537499999791,5020,Namen,5
"50.191231499999844, 5.005449999999797",BE,Houyet,Houyet,FRE,50.191231499999844,5.005449999999797,5560,Namen,5
"50.70280499999984, 3.8349784999998073",BE,Houtaing,Houtaing,FRE,50.70280499999984,3.8349784999998073,7812,Henegouwen,7
"51.24605599999984, 5.543578499999796",BE,UNK,UNK,N_A,51.24605599999984,5.543578499999796,0,,0
"50.66993799999983, 4.616136999999809",BE,Louvain-La-Neuve-Univ.,Louvain-La-Neuve-Univ.,FRE,50.66993799999983,4.616136999999809,0,,0
"50.269130999999845, 4.4293829999998025",BE,Pry,Pry,FRE,50.269130999999845,4.4293829999998025,5650,Namen,5
"50.44291749999985, 4.393676499999799",BE,Roux,Roux,FRE,50.44291749999985,4.393676499999799,6044,Henegouwen,6
"50.87794149999985, 4.353627499999789",BE,Bockstael,Bockstael,DUT,50.87794149999985,4.353627499999789,0,,0
"50.83348949999984, 3.3946079999998062",BE,Vichte,Vichte,DUT,50.83348949999984,3.3946079999998062,8570,West-Vlaanderen,8
"50.48876249999984, 5.865764999999783",BE,Spa-Géronstère,Spa-Geronstere,FRE,50.48876249999984,5.865764999999783,0,,0
"49.93314749999985, 5.044772499999794",BE,Graide,Graide,FRE,49.93314749999985,5.044772499999794,5555,Namen,5
"51.33281499999984, 3.240477",BE,Heist,Heist,DUT,51.33281499999984,3.240477,0,,0
"50.60078849999985, 3.61776899999981",BE,Leuze,Leuze,FRE,50.60078849999985,3.61776899999981,5310,Namen,5
"50.849144499999845, 4.36325149999979",BE,Brussel-Congres,Brussel-Congres,DUT,50.849144499999845,4.36325149999979,0,,0
"50.451355499999835, 4.663229499999801",BE,Jemeppe-Sur-Sambre,Jemeppe-Sur-Sambre,FRE,50.451355499999835,4.663229499999801,0,,0
"50.529194999999845, 3.908339999999811",BE,Jurbise,Jurbise,FRE,50.529194999999845,3.908339999999811,7050,Henegouwen,7
"50.60768949999985, 4.649675999999801",BE,Chastre,Chastre,FRE,50.60768949999985,4.649675999999801,0,,0
"50.60739599999985, 5.617689499999784",BE,Chênée,Chenee,FRE,50.60739599999985,5.617689499999784,0,,0
"50.49330149999983, 5.025999999999783",BE,Sclaigneaux,Sclaigneaux,FRE,50.49330149999983,5.025999999999783,0,,0
"50.32139249999983, 4.212560999999795",BE,Fontaine-Valmont,Fontaine-Valmont,FRE,50.32139249999983,4.212560999999795,6567,Henegouwen,6
"50.44909349999983, 4.631250999999793",BE,Auvelais,Auvelais,FRE,50.44909349999983,4.631250999999793,5060,Namen,5
"50.53955499999984, 5.289446499999797",BE,Ampsin,Ampsin,FRE,50.53955499999984,5.289446499999797,4540,Luik,4
"51.15183349999984, 4.620325499999808",BE,Kessel,Kessel,DUT,51.15183349999984,4.620325499999808,2560,Antwerpen,2
"51.23202599999985, 4.425317499999807",BE,Antwerpen-Dam,Antwerpen-Dam,DUT,51.23202599999985,4.425317499999807,0,,0
"50.47435799999985, 4.128605999999792",BE,Bracquegnies,Bracquegnies,FRE,50.47435799999985,4.128605999999792,0,,0
"51.14349449999983, 4.0686695",BE,Snaai,Snaai,DUT,51.14349449999983,4.0686695,0,,0
"50.63000949999983, 3.35461749999979",BE,Froyennes,Froyennes,FRE,50.63000949999983,3.35461749999979,7503,Henegouwen,7
"50.94820549999983, 4.022432999999808",BE,Aalst-Kerrebroek,Aalst-Kerrebroek,DUT,50.94820549999983,4.022432999999808,0,,0
"50.49821149999985, 5.081977499999795",BE,Chateau-des-Seilles,Chateau-des-Seilles,FRE,50.49821149999985,5.081977499999795,0,,0
"50.65863849999985, 5.461159999999807",BE,Bierset-Awans,Bierset-Awans,FRE,50.65863849999985,5.461159999999807,0,,0
"50.94472599999983, 4.662333499999789",BE,Hambos,Hambos,DUT,50.94472599999983,4.662333499999789,0,,0
"50.41227049999983, 4.440260999999794",BE,Charleroi-ouest,Charleroi-ouest,FRE,50.41227049999983,4.440260999999794,0,,0
"50.605594999999845, 4.138525499999787",BE,Braine-le-Comte,Braine-le-Comte,FRE,50.605594999999845,4.138525499999787,0,,0
"50.891372999999845, 3.423875499999809",BE,Waregem,Waregem,DUT,50.891372999999845,3.423875499999809,8790,West-Vlaanderen,8
"50.45258049999984, 4.670502499999799",BE,Ham-sur-Sambre,Ham-sur-Sambre,FRE,50.45258049999984,4.670502499999799,0,,0
"50.878277499999854, 4.06958499999979",BE,Iddergem,Iddergem,DUT,50.878277499999854,4.06958499999979,9472,Oost-Vlaanderen,9
"50.84148049999984, 4.349542499999785",BE,Brussel-Kapellekerk,Brussel-Kapellekerk,DUT,50.84148049999984,4.349542499999785,0,,0
"50.75172099999983, 3.9145914999998013",BE,Viane-Moerbeke,Viane-Moerbeke,DUT,50.75172099999983,3.9145914999998013,0,,0
"50.77248049999983, 4.9937889999997935",BE,Ezemaal,Ezemaal,DUT,50.77248049999983,4.9937889999997935,3400,Vlaams-Brabant,3
"50.625538499999834, 5.565679499999789",BE,Liège-Guillemin,Liege-Guillemin,FRE,50.625538499999834,5.565679499999789,0,,0
"50.45675699999984, 4.826699999999789",BE,Ronet,Ronet,FRE,50.45675699999984,4.826699999999789,0,,0
"50.714893999999845, 4.383381499999786",BE,Waterloo,Waterloo,FRE,50.714893999999845,4.383381499999786,1410,Waals-Brabant,1
"50.54826399999985, 3.4949235",BE,Maubray,Maubray,FRE,50.54826399999985,3.4949235,7640,Henegouwen,7
"50.91013749999985, 3.646740999999793",BE,Zingem,Zingem,DUT,50.91013749999985,3.646740999999793,9750,Oost-Vlaanderen,9
"50.64789999999985, 4.566546499999787",BE,Court-Saint-Etienne,Court-Saint-Etienne,FRE,50.64789999999985,4.566546499999787,0,,0
"50.69171999999983, 4.205755999999809",BE,Tubize,Tubize,FRE,50.69171999999983,4.205755999999809,1480,Waals-Brabant,1
"50.24971849999983, 5.193516999999787",BE,Haversin,Haversin,FRE,50.24971849999983,5.193516999999787,5590,Namen,5
"50.54756999999984, 4.175254499999795",BE,Marche-Lez-Ecaussines,Marche-Lez-Ecaussines,FRE,50.54756999999984,4.175254499999795,0,,0
"50.486007999999856, 5.585814499999799",BE,Rivage,Rivage,FRE,50.486007999999856,5.585814499999799,0,,0
"50.76667099999983, 4.447603499999786",BE,Groenendaal,Groenendaal,DUT,50.76667099999983,4.447603499999786,0,,0
"51.06645299999985, 4.3561459999997965",BE,Willebroek,Willebroek,DUT,51.06645299999985,4.3561459999997965,2830,Antwerpen,2
"50.88094799999985, 4.328548499999783",BE,Jette,Jette,DUT,50.88094799999985,4.328548499999783,1090,Brussel,1
"50.428802999999846, 5.535446999999806",BE,Hamoir,Hamoir,FRE,50.428802999999846,5.535446999999806,4180,Luik,4
"50.564197999999834, 5.805314999999808",BE,Pepinster-Cité,Pepinster-Cite,FRE,50.564197999999834,5.805314999999808,0,,0
"50.76784999999983, 4.353792999999797",BE,Holleken,Holleken,DUT,50.76784999999983,4.353792999999797,0,,0
"50.159714499999836, 5.265094999999803",BE,Jemelle,Jemelle,FRE,50.159714499999836,5.265094999999803,5580,Namen,5
"50.659343999999834, 5.431270499999783",BE,Voroux,Voroux,FRE,50.659343999999834,5.431270499999783,0,,0
"50.60200149999983, 5.468140999999804",BE,Leman,Leman,FRE,50.60200149999983,5.468140999999804,0,,0
"50.56485449999985, 5.723689999999806",BE,Fraipont,Fraipont,FRE,50.56485449999985,5.723689999999806,4870,Luik,4
"51.37973899999983, 4.466226999999805",BE,Kijkuit,Kijkuit,DUT,51.37973899999983,4.466226999999805,0,,0
"50.93143549999985, 3.639061999999796",BE,Gavere-Asper,Gavere-Asper,DUT,50.93143549999985,3.639061999999796,0,,0
"50.453640499999835, 4.875406999999797",BE,Jambes,Jambes,FRE,50.453640499999835,4.875406999999797,5100,Namen,5
"50.89539399999984, 4.485328499999809",BE,Brussel-Nat-Luchthaven,Brussel-Nat-Luchthaven,DUT,50.89539399999984,4.485328499999809,0,,0
"50.44801399999983, 4.262279999999805",BE,Carnières,Carnieres,FRE,50.44801399999983,4.262279999999805,7141,Henegouwen,7
"51.07144649999983, 4.4957759999998075",BE,Sint-Katelijne-Waver,Sint-Katelijne-Waver,DUT,51.07144649999983,4.4957759999998075,0,,0
"50.42930649999985, 4.552714499999809",BE,Farciennes,Farciennes,FRE,50.42930649999985,4.552714499999809,6240,Henegouwen,6
"51.18342649999985, 4.348220999999796",BE,Hoboken-polder,Hoboken-polder,DUT,51.18342649999985,4.348220999999796,0,,0
"50.88608599999983, 5.291531999999791",BE,Alken,Alken,DUT,50.88608599999983,5.291531999999791,3570,Limburg,3
"50.316296499999844, 4.187449999999785",BE,Labuissière,Labuissiere,FRE,50.316296499999844,4.187449999999785,6567,Henegouwen,6
"51.077064999999834, 5.2321944999997925",BE,Beringen,Beringen,DUT,51.077064999999834,5.2321944999997925,3580,Limburg,3
"50.443466999999856, 4.762807999999808",BE,Floreffe,Floreffe,FRE,50.443466999999856,4.762807999999808,5150,Namen,5
"50.61487649999984, 3.799355499999791",BE,Maffle,Maffle,FRE,50.61487649999984,3.799355499999791,7810,Henegouwen,7
"50.19106349999984, 4.53775299999981",BE,Philippeville,Philippeville,FRE,50.19106349999984,4.53775299999981,5600,Namen,5
"51.26219449999984, 4.425221999999792",BE,Antwerpen-Noorderdokken,Antwerpen-Noorderdokken,DUT,51.26219449999984,4.425221999999792,0,,0
"51.15475499999985, 3.614461499999805",BE,Waarshoot,Waarshoot,DUT,51.15475499999985,3.614461499999805,0,,0
"50.64463849999984, 5.612423499999807",BE,Bressoux,Bressoux,FRE,50.64463849999984,5.612423499999807,4020,Luik,4
"50.678432999999835, 5.322364999999792",BE,Remicourt,Remicourt,FRE,50.678432999999835,5.322364999999792,4350,Luik,4
"50.83940149999983, 4.025720499999807",BE,Ninove,Ninove,DUT,50.83940149999983,4.025720499999807,9400,Oost-Vlaanderen,9
"50.81131449999984, 3.182828999999799",BE,Wevelgem,Wevelgem,DUT,50.81131449999984,3.182828999999799,8560,West-Vlaanderen,8
"50.55168549999985, 4.720347499999804",BE,Lonzée,Lonzee,FRE,50.55168549999985,4.720347499999804,5030,Namen,5
"50.835758999999854, 4.832326999999793",BE,Vertrijk,Vertrijk,DUT,50.835758999999854,4.832326999999793,3370,Vlaams-Brabant,3
"50.92088399999983, 3.21122349999979",BE,Izegem,Izegem,DUT,50.92088399999983,3.21122349999979,8870,West-Vlaanderen,8
"50.91035499999984, 4.206957499999788",BE,Asse,Asse,DUT,50.91035499999984,4.206957499999788,1730,Vlaams-Brabant,1
"50.52802349999984, 5.218291999999792",BE,Statte,Statte,FRE,50.52802349999984,5.218291999999792,0,,0
"50.303686999999854, 4.113197999999784",BE,Erquelinnes,Erquelinnes,FRE,50.303686999999854,4.113197999999784,6560,Henegouwen,6
"50.89302099999983, 4.545286999999803",BE,Kortenberg,Kortenberg,DUT,50.89302099999983,4.545286999999803,3070,Vlaams-Brabant,3
"51.07408249999983, 2.6752075",BE,Veurne,Veurne,DUT,51.07408249999983,2.6752075,8630,West-Vlaanderen,8
"51.169212499999844, 4.9912509999998065",BE,Geel,Geel,DUT,51.169212499999844,4.9912509999998065,2440,Antwerpen,2
"50.77169049999983, 3.871577999999801",BE,Geraardsbergen,Geraardsbergen,DUT,50.77169049999983,3.871577999999801,9500,Oost-Vlaanderen,9
"50.432720499999846, 4.46169949999981",BE,Lodelinsart,Lodelinsart,FRE,50.432720499999846,4.46169949999981,6042,Henegouwen,6
"50.80670199999983, 4.925913999999807",BE,Tienen,Tienen,DUT,50.80670199999983,4.925913999999807,3300,Vlaams-Brabant,3
"51.21094549999984, 5.309161999999787",BE,Lommel,Lommel,DUT,51.21094549999984,5.309161999999787,3920,Limburg,3
"51.24293199999985, 4.422936999999791",BE,Groenendaallaan,Groenendaallaan,DUT,51.24293199999985,4.422936999999791,0,,0
"50.804989499999834, 4.4005109999997964",BE,Bosvoorde,Bosvoorde,DUT,50.804989499999834,4.4005109999997964,0,,0
"51.00238099999984, 4.010440999999787",BE,Schoonaarde,Schoonaarde,DUT,51.00238099999984,4.010440999999787,9200,Oost-Vlaanderen,9
"50.89015649999985, 4.417160499999795",BE,Haren-Zuid,Haren-Zuid,DUT,50.89015649999985,4.417160499999795,0,,0
"50.11508999999983, 4.958287999999783",BE,Beauraing,Beauraing,FRE,50.11508999999983,4.958287999999783,5570,Namen,5
"51.15437, 3.25717849999981",BE,Oostkamp,Oostkamp,DUT,51.15437,3.25717849999981,8020,West-Vlaanderen,8
"50.32047, 4.881421999999787",BE,Yvoir,Yvoir,FRE,50.32047,4.881421999999787,5530,Namen,5
"50.82512749999984, 3.995713999999793",BE,Eichem,Eichem,DUT,50.82512749999984,3.995713999999793,0,,0
"50.34623399999984, 4.261780999999786",BE,Lobbes,Lobbes,FRE,50.34623399999984,4.261780999999786,6540,Henegouwen,6
"50.41305199999985, 4.393144999999805",BE,Marchienne-au-Pont,Marchienne-au-Pont,FRE,50.41305199999985,4.393144999999805,0,,0
"51.338554999999836, 3.285530999999793",BE,Knokke,Knokke,DUT,51.338554999999836,3.285530999999793,8300,West-Vlaanderen,8
"50.87593899999984, 3.730280999999792",BE,Munkzwalm,Munkzwalm,DUT,50.87593899999984,3.730280999999792,9630,Oost-Vlaanderen,9
"50.43885499999985, 4.735932499999791",BE,Franière,Franiere,FRE,50.43885499999985,4.735932499999791,5150,Namen,5
"51.18291099999985, 4.449550999999786",BE,Mortsel,Mortsel,DUT,51.18291099999985,4.449550999999786,2640,Antwerpen,2
"50.81755149999984, 5.175174999999797",BE,Sint-truiden,Sint-truiden,DUT,50.81755149999984,5.175174999999797,3800,Limburg,3
"50.73223199999984, 3.846455499999792",BE,Acren,Acren,FRE,50.73223199999984,3.846455499999792,0,,0
"51.197765999999824, 4.392985999999808",BE,Antwerpen-Zuid,Antwerpen-Zuid,DUT,51.197765999999824,4.392985999999808,0,,0
"50.97514449999982, 4.46945549999981",BE,Weerde,Weerde,DUT,50.97514449999982,4.46945549999981,1982,Vlaams-Brabant,1
"50.48145349999984, 3.699966999999788",BE,Harchies,Harchies,FRE,50.48145349999984,3.699966999999788,7321,Henegouwen,7
"50.97764649999985, 3.5371040000000002",BE,Deinze,Deinze,DUT,50.97764649999985,3.5371040000000002,9800,Oost-Vlaanderen,9
"51.065781499999844, 3.106010499999798",BE,Torhout,Torhout,DUT,51.065781499999844,3.106010499999798,8820,West-Vlaanderen,8
"50.95620049999985, 5.4107645",BE,Bokrijk,Bokrijk,DUT,50.95620049999985,5.4107645,0,,0
"50.675804999999855, 4.566365999999789",BE,Ottignies,Ottignies,FRE,50.675804999999855,4.566365999999789,1340,Waals-Brabant,1
"50.59603149999984, 5.453660499999785",BE,Flémalle-Haute,Flemalle-Haute,FRE,50.59603149999984,5.453660499999785,4400,Luik,4
"51.22113049999984, 5.436771499999793",BE,Neerpelt,Neerpelt,DUT,51.22113049999984,5.436771499999793,3910,Limburg,3
"50.517822999999844, 4.214406499999797",BE,Familleureux,Familleureux,FRE,50.517822999999844,4.214406499999797,7181,Henegouwen,7
"50.882858999999854, 4.504978999999793",BE,Nossegem,Nossegem,DUT,50.882858999999854,4.504978999999793,1930,Vlaams-Brabant,1
"50.27911049999983, 5.9079334999997855",BE,Vielsalm,Vielsalm,FRE,50.27911049999983,5.9079334999997855,6690,Luxemburg,6
"50.58401949999984, 5.400533499999796",BE,Engis,Engis,FRE,50.58401949999984,5.400533499999796,4480,Luik,4
"50.49963449999984, 4.800096499999796",BE,Rhisnes,Rhisnes,FRE,50.49963449999984,4.800096499999796,5080,Namen,5
"50.33491949999984, 4.405475499999795",BE,Bêgnée,Begnee,FRE,50.33491949999984,4.405475499999795,0,,0
"50.42388599999984, 3.747750499999796",BE,Thulin,Thulin,FRE,50.42388599999984,3.747750499999796,7350,Henegouwen,7
"50.868740499999824, 4.27917499999981",BE,Groot-Bijgaarden,Groot-Bijgaarden,DUT,50.868740499999824,4.27917499999981,1702,Vlaams-Brabant,1
"50.45838999999983, 4.247169499999785",BE,Morlawelz,Morlawelz,FRE,50.45838999999983,4.247169499999785,0,,0
"50.56178349999985, 4.157229499999801",BE,Ecaussines,Ecaussines,FRE,50.56178349999985,4.157229499999801,0,,0
"50.533397499999836, 4.749093499999788",BE,Beuzet,Beuzet,FRE,50.533397499999836,4.749093499999788,5030,Namen,5
"50.57045449999984, 5.581256499999796",BE,Tilff,Tilff,FRE,50.57045449999984,5.581256499999796,4130,Luik,4
"50.94238349999983, 4.039703499999802",BE,Aalst,Aalst,DUT,50.94238349999983,4.039703499999802,3800,Limburg,3
"50.94238349999983, 4.039703499999802",BE,Aalst,Aalst,DUT,50.94238349999983,4.039703499999802,9300,Oost-Vlaanderen,9
"50.46871599999983, 4.008185999999796",BE,Obourg,Obourg,FRE,50.46871599999983,4.008185999999796,7034,Henegouwen,7
"50.949741999999844, 3.129798499999793",BE,Roeselare,Roeselare,DUT,50.949741999999844,3.129798499999793,8800,West-Vlaanderen,8
"50.23733949999985, 4.904385999999789",BE,Anseremme,Anseremme,FRE,50.23733949999985,4.904385999999789,5500,Namen,5
"50.76892149999983, 4.305357499999785",BE,Beersel,Beersel,DUT,50.76892149999983,4.305357499999785,1650,Vlaams-Brabant,1
"50.867233499999855, 4.204570999999788",BE,Sint-Maartens-Bodegem,Sint-Maartens-Bodegem,DUT,50.867233499999855,4.204570999999788,0,,0
"51.13370949999984, 4.476498999999791",BE,Kontich,Kontich,DUT,51.13370949999984,4.476498999999791,2550,Antwerpen,2
"50.74164699999982, 3.602263999999792",BE,Ronse,Ronse,DUT,50.74164699999982,3.602263999999792,9600,Oost-Vlaanderen,9
"50.685039999999844, 3.8221014999998033",BE,Papignies,Papignies,FRE,50.685039999999844,3.8221014999998033,7861,Henegouwen,7
"50.93864499999984, 3.777129999999801",BE,Scheldewindeke,Scheldewindeke,DUT,50.93864499999984,3.777129999999801,9860,Oost-Vlaanderen,9
"50.792591499999844, 4.331135999999788",BE,Ukkel-Kalvoet,Ukkel-Kalvoet,DUT,50.792591499999844,4.331135999999788,0,,0
"50.51069749999984, 4.566014499999795",BE,Ligny,Ligny,FRE,50.51069749999984,4.566014499999795,5140,Namen,5
"51.20401849999985, 4.428211999999803",BE,Antwerpen-Berchem,Antwerpen-Berchem,DUT,51.20401849999985,4.428211999999803,0,,0
"50.40979049999984, 4.521491999999796",BE,Châtelet,Chatelet,FRE,50.40979049999984,4.521491999999796,6200,Henegouwen,6
"50.51368749999983, 4.354148999999808",BE,Pont-a-Celles,Pont-a-Celles,FRE,50.51368749999983,4.354148999999808,0,,0
"50.65809649999982, 4.568986999999794",BE,Céroux-Mousty,Ceroux-Mousty,FRE,50.65809649999982,4.568986999999794,1341,Waals-Brabant,1
"50.59298749999985, 3.855475999999782",BE,Brugelette,Brugelette,FRE,50.59298749999985,3.855475999999782,7940,Henegouwen,7
"50.693291499999845, 5.598765499999786",BE,Milmont,Milmont,FRE,50.693291499999845,5.598765499999786,0,,0
"50.558895999999834, 3.904382999999797",BE,Lens,Lens,FRE,50.558895999999834,3.904382999999797,7870,Henegouwen,7
"50.40650199999985, 3.906349999999804",BE,Frameries,Frameries,FRE,50.40650199999985,3.906349999999804,7080,Henegouwen,7
"50.88942749999984, 4.442327999999804",BE,Diegem,Diegem,DUT,50.88942749999984,4.442327999999804,1831,Vlaams-Brabant,1
"51.17218099999985, 4.454929499999792",BE,Mortsel-Oude-God,Mortsel-Oude-God,DUT,51.17218099999985,4.454929499999792,0,,0
"50.96775499999984, 5.498068999999788",BE,Genk,Genk,DUT,50.96775499999984,5.498068999999788,3600,Limburg,3
"50.91359349999985, 3.935672999999809",BE,Bambrugge,Bambrugge,DUT,50.91359349999985,3.935672999999809,9420,Oost-Vlaanderen,9
"50.590355499999845, 4.6691669999997885",BE,Ernage,Ernage,FRE,50.590355499999845,4.6691669999997885,5030,Namen,5
"50.577774499999826, 4.534950999999808",BE,Villers-la-Ville,Villers-la-Ville,FRE,50.577774499999826,4.534950999999808,0,,0
"50.94202849999984, 3.97906599999979",BE,Vijfhuizen,Vijfhuizen,DUT,50.94202849999984,3.97906599999979,0,,0
"51.13578049999983, 4.558925999999786",BE,Lier,Lier,DUT,51.13578049999983,4.558925999999786,2500,Antwerpen,2
"51.306652499999835, 3.192272999999801",BE,Zwankendamme,Zwankendamme,DUT,51.306652499999835,3.192272999999801,0,,0
"50.75287299999985, 4.664135999999786",BE,Archennes,Archennes,FRE,50.75287299999985,4.664135999999786,1390,Waals-Brabant,1
"50.99405749999985, 5.049618499999809",BE,Diest,Diest,DUT,50.99405749999985,5.049618499999809,3290,Vlaams-Brabant,3
"50.90134499999985, 3.895674499999786",BE,Terhagen,Terhagen,DUT,50.90134499999985,3.895674499999786,2840,Antwerpen,2
"51.02201549999983, 4.099638999999797",BE,Dendermonde,Dendermonde,DUT,51.02201549999983,4.099638999999797,9200,Oost-Vlaanderen,9
"50.505829499999834, 3.665740999999798",BE,Blaton,Blaton,FRE,50.505829499999834,3.665740999999798,7321,Henegouwen,7
"50.71460599999983, 3.244295499999794",BE,Herseaux,Herseaux,FRE,50.71460599999983,3.244295499999794,7712,Henegouwen,7
"51.00264799999985, 3.797929999999809",BE,Melle,Melle,DUT,51.00264799999985,3.797929999999809,9090,Oost-Vlaanderen,9
"51.12854099999984, 3.165590999999807",BE,Zedelgem,Zedelgem,DUT,51.12854099999984,3.165590999999807,8210,West-Vlaanderen,8
"50.348419499999835, 4.870599",BE,Godinne,Godinne,FRE,50.348419499999835,4.870599,5530,Namen,5
"51.02596349999985, 3.125531999999794",BE,Lichtervelde,Lichtervelde,DUT,51.02596349999985,3.125531999999794,8810,West-Vlaanderen,8
"51.09795049999985, 4.242463999999785",BE,Bornem,Bornem,DUT,51.09795049999985,4.242463999999785,2880,Antwerpen,2
"50.61328549999984, 5.551011999999787",BE,Sclessin,Sclessin,FRE,50.61328549999984,5.551011999999787,0,,0
"50.920757999999836, 3.7898744999997973",BE,Balegem-Dorp,Balegem-Dorp,DUT,50.920757999999836,3.7898744999997973,0,,0
"50.428082499999846, 3.768416499999802",BE,Hainin,Hainin,FRE,50.428082499999846,3.768416499999802,7350,Henegouwen,7
"50.57119799999984, 5.740974499999794",BE,Nessonvaux,Nessonvaux,FRE,50.57119799999984,5.740974499999794,4870,Luik,4
"51.01903949999985, 4.158400999999799",BE,Baasrode-Zuid,Baasrode-Zuid,DUT,51.01903949999985,4.158400999999799,0,,0
"50.95487999999983, 4.222650499999787",BE,Merchtem,Merchtem,DUT,50.95487999999983,4.222650499999787,1785,Vlaams-Brabant,1
"50.911350999999854, 5.417944499999805",BE,Diepenbeek,Diepenbeek,DUT,50.911350999999854,5.417944499999805,3590,Limburg,3
"50.956356999999855, 4.748779499999785",BE,Wezemaal,Wezemaal,DUT,50.956356999999855,4.748779499999785,3111,Vlaams-Brabant,3
"50.663433999999846, 3.936767999999802",BE,Silly,Silly,FRE,50.663433999999846,3.936767999999802,7830,Henegouwen,7
"51.01621299999985, 4.199451999999809",BE,Buggenhout,Buggenhout,DUT,51.01621299999985,4.199451999999809,9255,Oost-Vlaanderen,9
"51.15988999999984, 4.662931499999786",BE,Nijlen,Nijlen,DUT,51.15988999999984,4.662931499999786,2560,Antwerpen,2
"50.772965999999855, 3.000980499999798",BE,Comines,Comines,FRE,50.772965999999855,3.000980499999798,0,,0
"50.53547399999985, 4.363778999999794",BE,Obaix-Buzet,Obaix-Buzet,FRE,50.53547399999985,4.363778999999794,0,,0
"50.97097499999984, 3.984750499999791",BE,Lede,Lede,DUT,50.97097499999984,3.984750499999791,9340,Oost-Vlaanderen,9
"50.89155249999985, 4.273712999999788",BE,Zellik,Zellik,DUT,50.89155249999985,4.273712999999788,1731,Vlaams-Brabant,1
"50.80113699999984, 3.919598499999807",BE,Idegem,Idegem,DUT,50.80113699999984,3.919598499999807,9506,Oost-Vlaanderen,9
"51.190559999999834, 5.114004499999794",BE,Mol,Mol,DUT,51.190559999999834,5.114004499999794,2400,Antwerpen,2
"51.208885999999836, 4.261135999999794",BE,Beveren(-Waas),Beveren(-Waas),DUT,51.208885999999836,4.261135999999794,0,,0
"50.84477699999985, 4.358923999999803",BE,Brussel-Centraal,Brussel-Centraal,DUT,50.84477699999985,4.358923999999803,0,,0
"50.34235049999984, 5.060180499999802",BE,Natoye,Natoye,FRE,50.34235049999984,5.060180499999802,5360,Namen,5
"51.03344799999985, 2.870145499999808",BE,Diksmuide,Diksmuide,DUT,51.03344799999985,2.870145499999808,8600,West-Vlaanderen,8
"50.53597699999983, 5.817357499999787",BE,Theux,Theux,FRE,50.53597699999983,5.817357499999787,4910,Luik,4
"50.836453499999834, 4.334438999999804",BE,Brussel-Zuid,Brussel-Zuid,DUT,50.836453499999834,4.334438999999804,0,,0
"50.541179999999855, 5.57377299999979",BE,Hony,Hony,FRE,50.541179999999855,5.57377299999979,0,,0
"50.73938849999985, 4.3700059999997904",BE,De-Hoek,De-Hoek,DUT,50.73938849999985,4.3700059999997904,0,,0
"50.95122199999983, 3.780235999999803",BE,Moortsele,Moortsele,DUT,50.95122199999983,3.780235999999803,9860,Oost-Vlaanderen,9
"50.85986749999984, 4.362758499999785",BE,Brussel-Noord,Brussel-Noord,DUT,50.85986749999984,4.362758499999785,0,,0
"51.01434749999984, 4.230411999999802",BE,Malderen,Malderen,DUT,51.01434749999984,4.230411999999802,1840,Vlaams-Brabant,1
"51.29145749999984, 4.434908999999806",BE,Sint-Mariaburg,Sint-Mariaburg,DUT,51.29145749999984,4.434908999999806,0,,0
"50.83601849999985, 4.65386",BE,Oud-Heverlee,Oud-Heverlee,DUT,50.83601849999985,4.65386,0,,0
"49.85308899999984, 5.453740999999809",BE,Neufchâteau,Neufchateau,FRE,49.85308899999984,5.453740999999809,4608,Luik,4
"49.85308899999984, 5.453740999999809",BE,Neufchâteau,Neufchateau,FRE,49.85308899999984,5.453740999999809,6840,Luxemburg,6
"50.634540999999835, 6.043669999999793",BE,Eupen,Eupen,FRE,50.634540999999835,6.043669999999793,4700,Luik,4
"50.86897699999982, 3.816159499999799",BE,Zottegem,Zottegem,DUT,50.86897699999982,3.816159499999799,9620,Oost-Vlaanderen,9
"50.68520799999985, 5.285000999999795",BE,Bleret,Bleret,FRE,50.68520799999985,5.285000999999795,4300,Luik,4
"50.984890999999834, 3.95858899999979",BE,Serskamp,Serskamp,DUT,50.984890999999834,3.95858899999979,9260,Oost-Vlaanderen,9
"50.95771849999983, 4.457604499999803",BE,Eppegem,Eppegem,DUT,50.95771849999983,4.457604499999803,1980,Vlaams-Brabant,1
"50.54808449999984, 5.587000999999788",BE,Méry,Mery,FRE,50.54808449999984,5.587000999999788,0,,0
"51.12680499999985, 3.331450999999788",BE,Beernem,Beernem,DUT,51.12680499999985,3.331450999999788,8730,West-Vlaanderen,8
"50.71129299999984, 4.5336595",BE,Rixensart,Rixensart,FRE,50.71129299999984,4.5336595,1330,Waals-Brabant,1
"49.68834749999985, 5.786100999999803",BE,Viville,Viville,FRE,49.68834749999985,5.786100999999803,0,,0
"50.88167649999985, 4.098021999999787",BE,Liedekerke,Liedekerke,DUT,50.88167649999985,4.098021999999787,1770,Vlaams-Brabant,1
"51.00998749999985, 4.51218449999979",BE,Muizen,Muizen,DUT,51.00998749999985,4.51218449999979,2812,Antwerpen,2
"51.00998749999985, 4.51218449999979",BE,Muizen,Muizen,DUT,51.00998749999985,4.51218449999979,3891,Limburg,3
"51.36745099999984, 4.46309549999981",BE,Heide,Heide,DUT,51.36745099999984,4.46309549999981,0,,0
"50.99716649999985, 3.650793499999792",BE,De Pinte,De Pinte,DUT,50.99716649999985,3.650793499999792,9840,Oost-Vlaanderen,9
"50.49755949999985, 4.325688999999783",BE,Gouy-lez-Pieton,Gouy-lez-Pieton,FRE,50.49755949999985,4.325688999999783,0,,0
"51.22198149999983, 3.2017394999998032",BE,Brugge-Sint-Pieters,Brugge-Sint-Pieters,DUT,51.22198149999983,3.2017394999998032,0,,0
"50.809994499999846, 4.309671999999807",BE,Vorst-Zuid,Vorst-Zuid,DUT,50.809994499999846,4.309671999999807,0,,0
"50.661346999999836, 3.793461499999807",BE,Rebaix,Rebaix,FRE,50.661346999999836,3.793461499999807,7804,Henegouwen,7
"51.07275099999984, 4.042869499999796",BE,Zele,Zele,DUT,51.07275099999984,4.042869499999796,9240,Oost-Vlaanderen,9
"50.60022399999985, 4.335054999999784",BE,Nivelles,Nivelles,FRE,50.60022399999985,4.335054999999784,1400,Waals-Brabant,1
"51.125728999999836, 3.668806499999789",BE,Sleidinge,Sleidinge,DUT,51.125728999999836,3.668806499999789,9940,Oost-Vlaanderen,9
"51.117568999999826, 5.256302499999805",BE,Leopoldsburg,Leopoldsburg,DUT,51.117568999999826,5.256302499999805,3970,Limburg,3
"50.90126849999984, 3.807449499999791",BE,Balegem-Zuid,Balegem-Zuid,DUT,50.90126849999984,3.807449499999791,0,,0
"51.165706999999855, 4.748548999999798",BE,Bouwel,Bouwel,DUT,51.165706999999855,4.748548999999798,2288,Antwerpen,2
"50.984657999999854, 4.823310999999791",BE,Aarschot,Aarschot,DUT,50.984657999999854,4.823310999999791,3200,Vlaams-Brabant,3
"50.82692399999985, 3.227329999999796",BE,Bissegem,Bissegem,DUT,50.82692399999985,3.227329999999796,8501,West-Vlaanderen,8
"50.418720499999836, 4.930837999999794",BE,Naninne,Naninne,FRE,50.418720499999836,4.930837999999794,5100,Namen,5
"50.93326649999983, 4.216912999999805",BE,Mollem,Mollem,DUT,50.93326649999983,4.216912999999805,1730,Vlaams-Brabant,1
"50.842201499999845, 4.377300499999791",BE,Brussel-Schuman,Brussel-Schuman,DUT,50.842201499999845,4.377300499999791,0,,0
"50.77330449999985, 4.340020499999809",BE,Linkebeek,Linkebeek,DUT,50.77330449999985,4.340020499999809,1630,Vlaams-Brabant,1
"50.69828849999984, 5.565218999999786",BE,Liers,Liers,FRE,50.69828849999984,5.565218999999786,4042,Luik,4
"51.00130549999983, 3.8822534999997913",BE,Wetteren,Wetteren,DUT,51.00130549999983,3.8822534999997913,9230,Oost-Vlaanderen,9
"50.52171399999983, 4.767286499999783",BE,Saint-Denis-Bovesse,Saint-Denis-Bovesse,FRE,50.52171399999983,4.767286499999783,5081,Namen,5
"51.025311499999845, 3.04533699999979",BE,Kortemark,Kortemark,DUT,51.025311499999845,3.04533699999979,8610,West-Vlaanderen,8
"51.02013449999984, 3.763677499999801",BE,Merelbeke,Merelbeke,DUT,51.02013449999984,3.763677499999801,9820,Oost-Vlaanderen,9
"50.54568549999985, 5.320353999999782",BE,Amay,Amay,FRE,50.54568549999985,5.320353999999782,4540,Luik,4
"50.50783199999984, 3.888634999999795",BE,Ebrisoeul,Ebrisoeul,FRE,50.50783199999984,3.888634999999795,0,,0
"51.08349699999985, 3.488284499999793",BE,Bellem,Bellem,DUT,51.08349699999985,3.488284499999793,9881,Oost-Vlaanderen,9
"50.472000999999835, 5.671667499999785",BE,Aywaille,Aywaille,FRE,50.472000999999835,5.671667499999785,4920,Luik,4
"50.571056999999854, 4.690175499999782",BE,Gembloux,Gembloux,FRE,50.571056999999854,4.690175499999782,5030,Namen,5
"50.28521799999984, 4.406773499999786",BE,Berzée,Berzee,FRE,50.28521799999984,4.406773499999786,5651,Namen,5
"51.00968999999983, 4.295866499999789",BE,Londerzeel,Londerzeel,DUT,51.00968999999983,4.295866499999789,1840,Vlaams-Brabant,1
"50.42349649999982, 4.542113499999799",BE,le-Campinaire,le-Campinaire,FRE,50.42349649999982,4.542113499999799,0,,0
"50.87678549999984, 4.408617999999791",BE,Bordet,Bordet,DUT,50.87678549999984,4.408617999999791,0,,0
"50.573825999999855, 4.071281499999799",BE,Soignies,Soignies,FRE,50.573825999999855,4.071281499999799,7060,Henegouwen,7
"50.36852699999983, 5.021714999999801",BE,Assesse,Assesse,FRE,50.36852699999983,5.021714999999801,5330,Namen,5
"50.82532949999984, 3.49553499999979",BE,Anzegem,Anzegem,DUT,50.82532949999984,3.49553499999979,8570,West-Vlaanderen,8
"50.79820749999985, 3.90084299999981",BE,Schendelbeke,Schendelbeke,DUT,50.79820749999985,3.90084299999981,9506,Oost-Vlaanderen,9
"50.74886749999985, 5.535310499999781",BE,Glons,Glons,FRE,50.74886749999985,5.535310499999781,4690,Luik,4
"49.850876499999856, 5.268917999999786",BE,Bertrix,Bertrix,FRE,49.850876499999856,5.268917999999786,6880,Luxemburg,6
"51.24183149999984, 4.894661999999784",BE,Tielen,Tielen,DUT,51.24183149999984,4.894661999999784,2460,Antwerpen,2
"50.80598499999985, 3.95446099999981",BE,Zandbergen,Zandbergen,DUT,50.80598499999985,3.95446099999981,9506,Oost-Vlaanderen,9
"49.98640899999984, 4.977872999999789",BE,Gedinne,Gedinne,FRE,49.98640899999984,4.977872999999789,5575,Namen,5
"50.81258099999985, 3.97267499999981",BE,Appelterre,Appelterre,DUT,50.81258099999985,3.97267499999981,0,,0
"50.45001249999984, 3.854387999999801",BE,Quaregnon,Quaregnon,FRE,50.45001249999984,3.854387999999801,7390,Henegouwen,7
"50.35397749999984, 4.41018649999981",BE,Jamioulx,Jamioulx,FRE,50.35397749999984,4.41018649999981,6120,Henegouwen,6
